{"fetched_at":"2026-07-24T07:06:03.132Z","source":"https://celestrak.org/NORAD/elements/gp.php?GROUP=globalstar&FORMAT=JSON","constellation":"globalstar","records":[{"OBJECT_NAME":"GLOBALSTAR M069","OBJECT_ID":"2007-020C","EPOCH":"2026-07-23T05:43:32.519712","CLASSIFICATION_TYPE":"U","MEAN_MOTION":12.23472604,"ECCENTRICITY":0.0001471,"INCLINATION":52.002,"RA_OF_ASC_NODE":150.0854,"ARG_OF_PERICENTER":228.3389,"MEAN_ANOMALY":277.911,"EPHEMERIS_TYPE":0,"NORAD_CAT_ID":31573,"ELEMENT_SET_NO":999,"REV_AT_EPOCH":88321,"BSTAR":0.00028084,"MEAN_MOTION_DOT":-6.2e-7,"MEAN_MOTION_DDOT":0},{"OBJECT_NAME":"GLOBALSTAR M072","OBJECT_ID":"2007-020D","EPOCH":"2026-07-23T08:35:27.502080","CLASSIFICATION_TYPE":"U","MEAN_MOTION":11.91658768,"ECCENTRICITY":0.0001636,"INCLINATION":51.9954,"RA_OF_ASC_NODE":3.9489,"ARG_OF_PERICENTER":50.1578,"MEAN_ANOMALY":315.8926,"EPHEMERIS_TYPE":0,"NORAD_CAT_ID":31574,"ELEMENT_SET_NO":999,"REV_AT_EPOCH":87929,"BSTAR":0.000032091,"MEAN_MOTION_DOT":-8.2e-7,"MEAN_MOTION_DDOT":0},{"OBJECT_NAME":"GLOBALSTAR M066","OBJECT_ID":"2007-048C","EPOCH":"2026-07-23T17:41:23.451072","CLASSIFICATION_TYPE":"U","MEAN_MOTION":12.30390701,"ECCENTRICITY":0.0005452,"INCLINATION":51.9608,"RA_OF_ASC_NODE":312.9902,"ARG_OF_PERICENTER":119.181,"MEAN_ANOMALY":45.0883,"EPHEMERIS_TYPE":0,"NORAD_CAT_ID":32265,"ELEMENT_SET_NO":999,"REV_AT_EPOCH":86472,"BSTAR":0.00064737,"MEAN_MOTION_DOT":-1.8e-7,"MEAN_MOTION_DDOT":0},{"OBJECT_NAME":"GLOBALSTAR M079","OBJECT_ID":"2010-054A","EPOCH":"2026-07-23T21:36:42.557184","CLASSIFICATION_TYPE":"U","MEAN_MOTION":12.62266445,"ECCENTRICITY":0.000111,"INCLINATION":52.006,"RA_OF_ASC_NODE":356.9093,"ARG_OF_PERICENTER":91.6633,"MEAN_ANOMALY":73.2485,"EPHEMERIS_TYPE":0,"NORAD_CAT_ID":37188,"ELEMENT_SET_NO":999,"REV_AT_EPOCH":72718,"BSTAR":0.000035675,"MEAN_MOTION_DOT":-9.7e-7,"MEAN_MOTION_DDOT":0},{"OBJECT_NAME":"GLOBALSTAR M074","OBJECT_ID":"2010-054B","EPOCH":"2026-07-23T20:15:03.811104","CLASSIFICATION_TYPE":"U","MEAN_MOTION":12.62262047,"ECCENTRICITY":0.0000824,"INCLINATION":52.0038,"RA_OF_ASC_NODE":356.3417,"ARG_OF_PERICENTER":106.4571,"MEAN_ANOMALY":40.5266,"EPHEMERIS_TYPE":0,"NORAD_CAT_ID":37189,"ELEMENT_SET_NO":999,"REV_AT_EPOCH":72778,"BSTAR":0.000020562,"MEAN_MOTION_DOT":-0.000001,"MEAN_MOTION_DDOT":0},{"OBJECT_NAME":"GLOBALSTAR M076","OBJECT_ID":"2010-054C","EPOCH":"2026-07-23T10:47:05.872128","CLASSIFICATION_TYPE":"U","MEAN_MOTION":12.62262713,"ECCENTRICITY":0.0001074,"INCLINATION":52.0054,"RA_OF_ASC_NODE":357.749,"ARG_OF_PERICENTER":103.3381,"MEAN_ANOMALY":290.389,"EPHEMERIS_TYPE":0,"NORAD_CAT_ID":37190,"ELEMENT_SET_NO":999,"REV_AT_EPOCH":72745,"BSTAR":0.00012603,"MEAN_MOTION_DOT":-8.1e-7,"MEAN_MOTION_DDOT":0},{"OBJECT_NAME":"GLOBALSTAR M077","OBJECT_ID":"2010-054D","EPOCH":"2026-07-23T02:31:24.438144","CLASSIFICATION_TYPE":"U","MEAN_MOTION":11.67547147,"ECCENTRICITY":0.00021482,"INCLINATION":51.9963,"RA_OF_ASC_NODE":88.1305,"ARG_OF_PERICENTER":239.9139,"MEAN_ANOMALY":289.0346,"EPHEMERIS_TYPE":0,"NORAD_CAT_ID":37191,"ELEMENT_SET_NO":999,"REV_AT_EPOCH":72533,"BSTAR":-0.00019577933,"MEAN_MOTION_DOT":-8.9e-7,"MEAN_MOTION_DDOT":0},{"OBJECT_NAME":"GLOBALSTAR M075","OBJECT_ID":"2010-054E","EPOCH":"2026-07-23T12:54:41.892768","CLASSIFICATION_TYPE":"U","MEAN_MOTION":12.62267911,"ECCENTRICITY":0.0000798,"INCLINATION":51.9957,"RA_OF_ASC_NODE":39.5122,"ARG_OF_PERICENTER":76.6603,"MEAN_ANOMALY":300.6199,"EPHEMERIS_TYPE":0,"NORAD_CAT_ID":37192,"ELEMENT_SET_NO":999,"REV_AT_EPOCH":72653,"BSTAR":0.0000099945,"MEAN_MOTION_DOT":-0.00000102,"MEAN_MOTION_DDOT":0},{"OBJECT_NAME":"GLOBALSTAR M073","OBJECT_ID":"2010-054F","EPOCH":"2026-07-23T17:24:25.898400","CLASSIFICATION_TYPE":"U","MEAN_MOTION":12.62266984,"ECCENTRICITY":0.0000956,"INCLINATION":52.0078,"RA_OF_ASC_NODE":313.0725,"ARG_OF_PERICENTER":109.4951,"MEAN_ANOMALY":37.6656,"EPHEMERIS_TYPE":0,"NORAD_CAT_ID":37193,"ELEMENT_SET_NO":999,"REV_AT_EPOCH":72854,"BSTAR":0.000021411,"MEAN_MOTION_DOT":-0.000001,"MEAN_MOTION_DDOT":0},{"OBJECT_NAME":"GLOBALSTAR M083","OBJECT_ID":"2011-033A","EPOCH":"2026-07-23T15:56:16.734912","CLASSIFICATION_TYPE":"U","MEAN_MOTION":12.62258562,"ECCENTRICITY":0.0000669,"INCLINATION":51.9848,"RA_OF_ASC_NODE":261.4384,"ARG_OF_PERICENTER":113.8012,"MEAN_ANOMALY":56.2163,"EPHEMERIS_TYPE":0,"NORAD_CAT_ID":37739,"ELEMENT_SET_NO":999,"REV_AT_EPOCH":69755,"BSTAR":0.000091754,"MEAN_MOTION_DOT":-8.7e-7,"MEAN_MOTION_DDOT":0},{"OBJECT_NAME":"GLOBALSTAR M088","OBJECT_ID":"2011-033B","EPOCH":"2026-07-23T07:40:42.714048","CLASSIFICATION_TYPE":"U","MEAN_MOTION":12.62269562,"ECCENTRICITY":0.0000198,"INCLINATION":52.0195,"RA_OF_ASC_NODE":168.9984,"ARG_OF_PERICENTER":33.4122,"MEAN_ANOMALY":130.86,"EPHEMERIS_TYPE":0,"NORAD_CAT_ID":37740,"ELEMENT_SET_NO":999,"REV_AT_EPOCH":69305,"BSTAR":0.000086538,"MEAN_MOTION_DOT":-8.8e-7,"MEAN_MOTION_DDOT":0},{"OBJECT_NAME":"GLOBALSTAR M091","OBJECT_ID":"2011-033C","EPOCH":"2026-07-23T13:48:47.397312","CLASSIFICATION_TYPE":"U","MEAN_MOTION":12.62264337,"ECCENTRICITY":0.0000619,"INCLINATION":51.9992,"RA_OF_ASC_NODE":131.1332,"ARG_OF_PERICENTER":38.2413,"MEAN_ANOMALY":148.611,"EPHEMERIS_TYPE":0,"NORAD_CAT_ID":37741,"ELEMENT_SET_NO":999,"REV_AT_EPOCH":69387,"BSTAR":-0.0000053535,"MEAN_MOTION_DOT":-0.00000105,"MEAN_MOTION_DDOT":0},{"OBJECT_NAME":"GLOBALSTAR M085","OBJECT_ID":"2011-033D","EPOCH":"2026-07-23T16:29:52.647360","CLASSIFICATION_TYPE":"U","MEAN_MOTION":12.62264559,"ECCENTRICITY":0.0000926,"INCLINATION":52.0129,"RA_OF_ASC_NODE":82.1168,"ARG_OF_PERICENTER":56.2621,"MEAN_ANOMALY":339.1711,"EPHEMERIS_TYPE":0,"NORAD_CAT_ID":37742,"ELEMENT_SET_NO":999,"REV_AT_EPOCH":69440,"BSTAR":-0.0000016461,"MEAN_MOTION_DOT":-0.00000104,"MEAN_MOTION_DDOT":0},{"OBJECT_NAME":"GLOBALSTAR M081","OBJECT_ID":"2011-033E","EPOCH":"2026-07-23T15:07:38.171424","CLASSIFICATION_TYPE":"U","MEAN_MOTION":12.62265462,"ECCENTRICITY":0.000079,"INCLINATION":51.9961,"RA_OF_ASC_NODE":84.685,"ARG_OF_PERICENTER":66.8786,"MEAN_ANOMALY":308.8052,"EPHEMERIS_TYPE":0,"NORAD_CAT_ID":37743,"ELEMENT_SET_NO":999,"REV_AT_EPOCH":69454,"BSTAR":0.000014968,"MEAN_MOTION_DOT":-0.00000101,"MEAN_MOTION_DDOT":0},{"OBJECT_NAME":"GLOBALSTAR M089","OBJECT_ID":"2011-033F","EPOCH":"2026-07-23T01:42:23.177376","CLASSIFICATION_TYPE":"U","MEAN_MOTION":12.62267686,"ECCENTRICITY":0.00007251,"INCLINATION":51.9941,"RA_OF_ASC_NODE":40.5389,"ARG_OF_PERICENTER":99.3141,"MEAN_ANOMALY":75.2064,"EPHEMERIS_TYPE":0,"NORAD_CAT_ID":37744,"ELEMENT_SET_NO":999,"REV_AT_EPOCH":69531,"BSTAR":0.000029139683,"MEAN_MOTION_DOT":-9.9e-7,"MEAN_MOTION_DDOT":0},{"OBJECT_NAME":"GLOBALSTAR M084","OBJECT_ID":"2011-080A","EPOCH":"2026-07-23T09:08:04.847424","CLASSIFICATION_TYPE":"U","MEAN_MOTION":12.62263747,"ECCENTRICITY":0.000065,"INCLINATION":52.0002,"RA_OF_ASC_NODE":267.0994,"ARG_OF_PERICENTER":145.0252,"MEAN_ANOMALY":296.3303,"EPHEMERIS_TYPE":0,"NORAD_CAT_ID":38040,"ELEMENT_SET_NO":999,"REV_AT_EPOCH":67333,"BSTAR":0.000074837,"MEAN_MOTION_DOT":-9e-7,"MEAN_MOTION_DDOT":0}]}
